CORVUS BC4              
1 43767U 18099K   26185.38862812  .00005834  00000+0  33729-3 0  9990
2 43767  97.4053 227.8657 0006721 307.9061  52.1561 15.12636422415008
M2 PATHFINDER           
1 45727U 20037E   26185.27026418  .00003364  00000+0  24274-3 0  9996
2 45727  97.8152  16.6938 0013013  95.4141 264.8569 15.04757926328069
NETSAT-4                
1 46504U 20068U   26185.49194299  .00031861  00000+0  68812-3 0  9990
2 46504  97.8602 195.1298 0003581 239.8890 120.2002 15.44467151318449
NETSAT-3                
1 46505U 20068V   26185.44652370  .00026466  00000+0  59536-3 0  9993
2 46505  97.8653 193.2756 0002916 267.2104  92.8809 15.43298067318343
NETSAT-1                
1 46506U 20068W   26185.47740705  .00023105  00000+0  68050-3 0  9995
2 46506  97.8750 187.4340 0002921 326.4876  33.6181 15.35055802317957
NETSAT-2                
1 46507U 20068X   26185.50719069  .00046144  00000+0  91861-3 0  9993
2 46507  97.8616 195.1057 0001360 284.8566  75.2531 15.46783339318417
GREENCUBE (IO-117)      
1 53109U 22080E   26185.30430443 -.00000003  00000+0  00000+0 0  9995
2 53109  70.1435 292.2925 0008954 285.9105  74.0568  6.42583223 93161
SITRO-AIS 5 (KATYS)     
1 57176U 23091L   26185.60163217  .00024814  00000+0  85670-3 0  9996
2 57176  97.5046 249.6703 0011735  48.3422 311.8821 15.29880307167001
SITRO-AIS 6 (CHIRKIN)   
1 57192U 23091AC  26185.62110626  .00019966  00000+0  76979-3 0  9996
2 57192  97.5052 248.7159 0012241  51.9047 308.3293 15.26286786166941
SITRO-AIS 8 (ANOKHIN)   
1 57193U 23091AD  26185.13080398  .00019060  00000+0  60599-3 0  9991
2 57193  97.5045 250.8532 0010646  46.1829 314.0291 15.32607386167048
SITRO-AIS 7 (FARTUSHNIY)
1 57194U 23091AE  26185.62785939  .00019203  00000+0  74771-3 0  9995
2 57194  97.5050 248.5384 0012185  53.0699 307.1654 15.25966494166939
SITRO-AIS 10 (BURDAEV)  
1 57199U 23091AK  26185.15516717  .00026543  00000+0  68169-3 0  9993
2 57199  97.5070 256.1095 0005964  24.9321 335.2211 15.39268228167371
SITRO-AIS 9 (SHCHUKIN)  
1 57201U 23091AM  26185.18704851  .00026320  00000+0  68713-3 0  9996
2 57201  97.5068 255.8587 0006215  24.8544 335.2999 15.38765397167360
SITRO-AIS 12 (SMIRENNIY)
1 57204U 23091AQ  26185.62954606  .00038147  00000+0  98281-3 0  9996
2 57204  97.5079 256.7899 0005690  17.2148 342.9289 15.39097328167453
SITRO-AIS 11 (SHEFFER)  
1 57208U 23091AU  26185.63809029  .00041739  00000+0  10595-2 0  9991
2 57208  97.5076 257.0564 0005573  17.1589 342.9844 15.39533113167471
SITRO-AIS 25            
1 59066U 24039R   26185.59452124  .00005150  00000+0  40265-3 0  9998
2 59066  95.3897 247.0548 0142175 267.0772  91.4176 14.93604508127323
SITRO-AIS 26            
1 59067U 24039S   26185.59828128  .00004254  00000+0  33471-3 0  9995
2 59067  95.3898 246.9515 0142534 267.6859  90.8041 14.93396447127311
SITRO-AIS 27            
1 59068U 24039T   26185.63061706  .00004733  00000+0  36854-3 0  9992
2 59068  95.3894 247.2537 0141793 266.1092  92.3914 14.93816958127348
SITRO-AIS 28            
1 59071U 24039U   26185.60766811  .00003858  00000+0  30089-3 0  9993
2 59071  95.3901 247.2862 0141544 266.0416  92.4619 14.93852343127346
GRBBETA                 
1 60237U 24128C   26185.34249703  .00004844  00000+0  33299-3 0  9997
2 60237  61.9890 156.0715 0038478 138.2511 222.1530 15.06749901108858
OOV-CUBE (TUBSAT-30)    
1 60240U 24128F   26185.35527502  .00002684  00000+0  21119-3 0  9996
2 60240  61.9937 165.7051 0042468 137.5285 222.9106 15.02839523108693
ROBUSTA-3A (MEDITERRAN*)
1 60243U 24128J   26185.59675456  .00014007  00000+0  81054-3 0  9993
2 60243  61.9860 146.6685 0039307 131.4187 229.0298 15.11874698109057
LASARSAT                
1 62391U 24247Q   26183.99211576  .00032189  00000+0  62059-3 0  9997
2 62391  44.9721 173.3382 0006547  74.4054 285.7559 15.47314006 85761
CROCUBE                 
1 62394U 24247T   26185.32391501  .00055566  00000+0  98588-3 0  9996
2 62394  44.9702 162.8872 0006332  91.7427 268.4189 15.49468158 86003
FORESAIL-1 PRIME        
1 66778U 25276DS  26185.45597925  .00006569  00000+0  31828-3 0  9994
2 66778  97.4190 258.4120 0003604  67.9939 292.1678 15.18862876 33029
KNACKSAT-2              
1 67683U 98067XZ  26185.44650885  .00065085  00000+0  74363-3 0  9991
2 67683  51.6262 207.5644 0008310 289.8930  70.1167 15.61522674 22974
